162P/Siding Spring,e,27.5593,30.9430,357.1037,3.091305,0.1813390,0.58304522,308.1754,02/26.0/2020,2000,g  9.0,4.0
# From MPC102101
163P/NEAT,e,12.7079,102.0915,349.6846,3.770541,0.1346166,0.45192735,27.5697,02/26.0/2020,2000,g 14.5,4.0
# From MPC106349
164P/Christensen,e,16.2533,88.3055,325.8739,3.658794,0.1408306,0.53962663,89.5264,02/26.0/2020,2000,g 11.0,4.0
# From MPC 75721
165P/LINEAR,e,15.9002,0.7279,126.2692,17.90747,0.0130063,0.61487317,93.8982,02/26.0/2020,2000,g 11.5,2.0
# From MPC 75722
166P/NEAT,e,15.3604,64.5123,321.4814,13.83708,0.0191486,0.38167724,124.6053,02/26.0/2020,2000,g  5.5,4.0
# From MPC 75722
167P/CINEOS,e,19.1205,295.6587,344.0775,16.18038,0.0151433,0.27313345,104.0796,02/26.0/2020,2000,g  9.5,2.0
# From MPC102101
168P/Hergenrother,e,21.6116,355.4673,14.9921,3.581909,0.1453893,0.62063565,29.7816,02/26.0/2020,2000,g 15.5,4.0
# From MPEC 2015-M77
169P/NEAT,e,11.2950,176.0863,218.0754,2.601504,0.2348916,0.76793344,156.8002,02/26.0/2020,2000,g  9.0,4.0
# From MPC 89012
170P/Christensen,e,10.1249,142.9190,225.6634,4.198106,0.1145840,0.30332583,228.1076,02/26.0/2020,2000,g 12.0,4.0
# From MPC102102
171P/Spahr,e,21.9338,101.6962,347.1259,3.556908,0.1469248,0.50174418,59.9985,02/26.0/2020,2000,g 13.5,4.0
# From MPEC 2019-VB6
172P/Yeung,e,11.2341,30.8963,209.3483,4.209970,0.1141000,0.20627522,123.1343,02/26.0/2020,2000,g 13.0,4.0
# From MPEC 2019-VB6
173P/Mueller,e,16.4972,100.4011,29.3875,5.700066,0.0724243,0.26052462,312.1055,02/26.0/2020,2000,g  7.5,4.0
# From MPC 92985
174P/Echeclus,e,4.3431,173.2737,162.8868,10.70031,0.0281585,0.45692066,49.8473,02/26.0/2020,2000,g  9.4,2.0
# From MPC114608
175P/Hergenrother,e,6.0773,123.5313,56.2080,3.427688,0.1553110,0.43216007,23.0130,02/26.0/2020,2000,g 14.0,4.0
# From MPC 89015
176P/LINEAR,e,0.2347,345.8797,35.1728,3.193171,0.1727312,0.19293585,186.8712,02/26.0/2020,2000,g 15.1,2.0
# From MPC 75723
177P/Barnard,e,31.3370,272.3576,60.1631,24.37214,0.0081915,0.95502949,40.3772,02/26.0/2020,2000,g 15.0,4.0
# From MPC105242
178P/Hug-Bell,e,11.0897,102.8748,297.7803,3.630140,0.1425014,0.48175414,339.8217,02/26.0/2020,2000,g 13.5,4.0
# From MPC 75723
179P/Jedicke,e,19.8983,115.5247,296.4364,5.944606,0.0680017,0.30603306,304.1538,02/26.0/2020,2000,g  2.5,8.0
# From MPC100284
180P/NEAT,e,16.8684,84.5560,94.9064,3.860695,0.1299289,0.35347921,199.8333,02/26.0/2020,2000,g 11.0,4.0
# From MPC 89012
181P/Shoemaker-Levy,e,17.4853,35.4114,336.2598,3.870510,0.1294350,0.70030901,271.6000,02/26.0/2020,2000,g 11.5,4.0
# From MPEC 2014-J10
182P/LONEOS,e,16.2401,72.7558,53.7904,2.956968,0.1938359,0.66121200,203.5117,02/26.0/2020,2000,g 18.0,4.0
# From MPC110085
183P/Korlevic-Juric,e,18.6786,5.4856,163.3670,4.514589,0.1027488,0.13987572,84.6436,02/26.0/2020,2000,g 12.5,2.0
# From MPC105242
184P/Lovas,e,4.5722,173.2879,186.4166,3.795439,0.1332941,0.55135715,327.5868,02/26.0/2020,2000,g 13.5,4.0
# From MPC109593
185P/Petriew,e,13.9962,214.0965,181.8910,3.099762,0.1805974,0.69883214,137.1609,02/26.0/2020,2000,g 15.0,4.0
# From MPC100284
186P/Garradd,e,28.4672,326.8783,283.9983,5.012867,0.0878162,0.12437796,26.0577,02/26.0/2020,2000,g  7.5,4.0
# From MPC104795
187P/LINEAR,e,13.6347,109.9236,132.3314,4.575519,0.1007032,0.15260371,65.2340,02/26.0/2020,2000,g  9.0,4.0
# From MPC106349
188P/LINEAR-Mueller,e,10.5178,358.9561,26.6095,4.377046,0.1076298,0.41502695,118.8486,02/26.0/2020,2000,g 11.5,4.0
# From MPC106349
189P/NEAT,e,20.0738,281.7408,16.2463,2.947419,0.1947787,0.58865648,181.8521,02/26.0/2020,2000,g 19.0,4.0
# From MPC 75724
190P/Mueller,e,2.1738,335.5684,50.2990,4.236383,0.1130346,0.52059702,160.4744,02/26.0/2020,2000,g 13.0,4.0
# From MPC 92277
191P/McNaught,e,8.8453,98.2426,283.8697,3.642130,0.1417983,0.38713198,305.0473,02/26.0/2020,2000,g 13.0,4.0
# From MPC 75724
192P/Shoemaker-Levy,e,24.5289,51.6503,312.8926,6.478875,0.0597661,0.77262388,267.3441,02/26.0/2020,2000,g 15.0,4.0
# From MPC 92277
193P/LINEAR-NEAT,e,10.6869,335.1933,8.2732,3.575010,0.1458103,0.39396841,280.2670,02/26.0/2020,2000,g 14.0,4.0
# From MPC 98566
194P/LINEAR,e,11.1641,351.6792,130.7064,3.987734,0.1237698,0.57719124,180.2019,02/26.0/2020,2000,g 16.0,4.0
# From MPC 75724
195P/Hill,e,36.3418,243.0954,249.5181,6.496941,0.0595169,0.31336905,242.0821,02/26.0/2020,2000,g  8.5,4.0
# From MPC 92985
196P/Tichy,e,19.3050,24.2151,12.3448,3.796880,0.1332182,0.42874169,229.7931,02/26.0/2020,2000,g 13.5,4.0
# From MPC 94676
197P/LINEAR,e,25.5511,66.3947,188.7292,2.867153,0.2030149,0.62996580,153.9100,02/26.0/2020,2000,g 16.5,2.0
# From NK 1596
198P/ODAS,e,1.3385,358.2493,69.2790,3.601141,0.1442261,0.44311716,63.3404,02/26.0/2020,2000,g  9.0,4.0
# From MPC 75725
199P/Shoemaker,e,24.9357,92.4002,191.5475,5.899703,0.0687795,0.50601396,273.4424,02/26.0/2020,2000,g 10.0,4.0
# From MPC118098
200P/Larsen,e,12.1048,234.8037,133.9983,4.936337,0.0898663,0.33203596,19.0845,02/26.0/2020,2000,g  9.0,4.0
# From MPC 93588
201P/LONEOS,e,5.7412,20.3022,40.8689,3.364088,0.1597361,0.63830875,287.3224,02/26.0/2020,2000,g 14.0,4.0
# From MPC103849
202P/Scotti,e,2.0255,184.0824,272.8967,3.963988,0.1248837,0.29440558,170.6757,02/26.0/2020,2000,g 13.5,4.0
# From MPEC 2019-TG9
203P/Korlevic,e,2.9733,290.3493,154.8798,4.671033,0.0976303,0.31497375,359.2134,02/26.0/2020,2000,g 14.5,2.0
# From MPC 98566
204P/LINEAR-NEAT,e,6.6354,108.8351,354.8506,3.633317,0.1423145,0.47988119,217.9639,02/26.0/2020,2000,g 14.0,4.0
# From MPC 98566
205P/Giacobini,e,15.2992,179.5986,154.1784,3.543224,0.1477767,0.56771446,258.3933,02/26.0/2020,2000,g 13.0,4.0
# From MPC 75725
206P/Barnard-Boattini,e,33.6346,202.3937,189.4240,3.488303,0.1512804,0.55147160,303.6537,02/26.0/2020,2000,g 19.0,4.0
# From MPC 75725
207P/NEAT,e,10.1488,199.8898,271.7010,3.865560,0.1296837,0.75990708,173.2140,02/26.0/2020,2000,g 16.0,4.0
# From MPC101100
208P/McMillan,e,4.4086,36.3738,310.3816,4.047863,0.1210223,0.37308583,161.4066,02/26.0/2020,2000,g 12.5,4.0
# From MPC 90771
209P/LINEAR,e,21.2580,62.7678,152.4872,2.960627,0.1934767,0.67326814,49.9569,02/26.0/2020,2000,g 17.0,2.0
# From MPC105242
210P/Christensen,e,10.2619,93.8356,345.9094,3.166016,0.1749582,0.83323084,352.6651,02/26.0/2020,2000,g 13.5,4.0
# From MPC 96868
211P/Hill,e,18.9207,117.1372,4.1247,3.549631,0.1473768,0.34213144,219.6394,02/26.0/2020,2000,g 12.5,4.0
# From MPC104795
212P/NEAT,e,22.6668,98.7048,14.4263,3.886408,0.1286416,0.58759906,162.4121,02/26.0/2020,2000,g 17.0,2.0
# From MPC114608
213P/Van Ness,e,10.3814,311.3009,5.5952,3.348411,0.1608592,0.40798718,142.2363,02/26.0/2020,2000,g 10.5,4.0
# From MPC 92986
214P/LINEAR,e,15.1878,348.2657,190.2931,3.615548,0.1433649,0.48610921,224.7637,02/26.0/2020,2000,g 13.0,4.0
# From MPC118098
215P/NEAT,e,10.5813,56.6870,262.0508,4.328516,0.1094449,0.16720755,10.9290,02/26.0/2020,2000,g 11.0,4.0
# From MPC100284
216P/LINEAR,e,9.0501,359.8234,151.3856,3.870407,0.1294402,0.44542595,176.9598,02/26.0/2020,2000,g 13.0,4.0
# From MPC108598
217P/LINEAR,e,12.8632,125.4711,246.8616,3.952271,0.1254394,0.68809205,119.7053,02/26.0/2020,2000,g 12.0,4.0
# From MPC105242
218P/LINEAR,e,2.7253,175.9783,59.7713,3.094674,0.1810430,0.62192873,320.0322,02/26.0/2020,2000,g 16.0,4.0
# From MPC100284
219P/LINEAR,e,11.5290,231.0057,107.3488,3.651445,0.1412560,0.35335652,155.3671,02/26.0/2020,2000,g 11.0,4.0
# From MPC105242
220P/McNaught,e,8.1280,150.1118,180.5665,3.115066,0.1792681,0.50178170,308.2448,02/26.0/2020,2000,g 15.0,4.0
# From MPC 93589
221P/LINEAR,e,11.4263,229.7300,40.0189,3.458280,0.1532547,0.49281116,258.7140,02/26.0/2020,2000,g 14.5,4.0
# From MPC 92277
222P/LINEAR,e,5.0943,6.8039,346.2253,2.899418,0.1996356,0.71433228,53.0905,02/26.0/2020,2000,g 20.0,4.0
# From MPEC 2019-VB6
223P/Skiff,e,27.0145,346.7798,37.8280,4.159283,0.1161920,0.41561042,45.8638,02/26.0/2020,2000,g 12.0,4.0
# From MPC 75727
224P/LINEAR-NEAT,e,13.3373,40.3971,16.8243,3.435046,0.1548122,0.40921954,213.4726,02/26.0/2020,2000,g 15.5,4.0
# From MPC 75727
225P/LINEAR,e,21.3445,14.1821,3.8729,3.651377,0.1412600,0.63747259,182.0160,02/26.0/2020,2000,g 18.0,4.0
# From MPC106349
226P/Pigott-LINEAR-Kowalski,e,44.0053,54.0059,341.0651,3.768075,0.1347488,0.52811989,171.1360,02/26.0/2020,2000,g 12.5,4.0
# From MPC102956
227P/Catalina-LINEAR,e,6.5119,49.5687,90.0554,3.573301,0.1459149,0.50465303,142.6690,02/26.0/2020,2000,g 16.5,2.0
# From MPEC 2017-X08
228P/LINEAR,e,7.9095,30.9894,115.3036,4.174551,0.1155552,0.17695346,358.4150,02/26.0/2020,2000,g 14.5,2.0
# From MPC106349
229P/Gibbs,e,26.0821,157.8959,224.0007,3.932076,0.1264070,0.37633344,127.8553,02/26.0/2020,2000,g 13.0,4.0
# From MPC110497
230P/LINEAR,e,15.5124,107.0262,313.8406,3.441504,0.1543767,0.55085655,244.2207,02/26.0/2020,2000,g 13.0,4.0
# From MPC114608
231P/LINEAR-NEAT,e,12.3341,133.0275,42.8045,4.017322,0.1224050,0.24757245,31.3976,02/26.0/2020,2000,g 14.5,2.0
# From MPC112394
232P/Hill,e,14.6305,56.0235,53.5112,4.483672,0.1038134,0.33440768,33.8043,02/26.0/2020,2000,g 11.5,4.0
# From MPC 92986
233P/La Sagra,e,11.2842,74.9268,27.0759,3.030100,0.1868610,0.41171287,319.1319,02/26.0/2020,2000,g 15.0,4.0
# From MPC110497
234P/LINEAR,e,11.5223,179.5739,357.4318,3.803793,0.1328553,0.25395875,133.1749,02/26.0/2020,2000,g 12.0,4.0
# From MPC110497
235P/LINEAR,e,8.8822,204.0501,333.5984,3.988346,0.1237413,0.31880333,87.9974,02/26.0/2020,2000,g 12.0,4.0
# From MPC107688
236P/LINEAR,e,16.3337,245.6607,119.2025,3.731742,0.1367215,0.50827338,113.1658,02/26.0/2020,2000,g 14.0,4.0
# From MPC109593
237P/LINEAR,e,14.0223,245.4188,25.1579,3.512437,0.1497240,0.43474915,184.4000,02/26.0/2020,2000,g 14.5,2.0
# From MPC107688
238P/Read,e,1.2645,51.6430,324.7309,3.163084,0.1752015,0.25233900,214.1996,02/26.0/2020,2000,g 14.5,4.0
# From MPC112394
239P/LINEAR,e,11.3047,255.9106,220.4148,4.470764,0.1042633,0.63083049,42.9407,02/26.0/2020,2000,g 17.5,2.0
# From MPC109593
240P/NEAT,e,23.5047,74.9241,352.0256,3.868992,0.1295112,0.44869577,84.3580,02/26.0/2020,2000,g 11.0,4.0
# From MPC 75729
